{"type": "FeatureCollection", "features": [ {"type": "Feature", "properties": {"norad_id": 34058, "name": "COSMOS 2251 DEB", "group": "cosmos-2251-debris", "lat": 51.15158929252063, "lon": -11.584568208516211, "alt_km": 897.2113839532094, "timestamp": "2025-12-05T18:53:13.675358+00:00", "meta": {"OBJECT_NAME": "COSMOS 2251 DEB", "OBJECT_ID": "1993-036JV", "EPOCH": "2025-12-05T01:10:48.628416", "MEAN_MOTION": 13.56060145, "ECCENTRICITY": 0.03782715, "INCLINATION": 73.9321, "RA_OF_ASC_NODE": 190.578, "ARG_OF_PERICENTER": 187.2804, "MEAN_ANOMALY": 301.799, "EPHEMERIS_TYPE": 0, "CLASSIFICATION_TYPE": "U", "NORAD_CAT_ID": 34058, "ELEMENT_SET_NO": 999, "REV_AT_EPOCH": 83038, "BSTAR": 0.00087785874, "MEAN_MOTION_DOT": 9.53e-06, "MEAN_MOTION_DDOT": 0}, "tle": {"line1": "1 34058U 93036JV  25339.04917394  .00000953  00000+0  87786-3 0  9995", "line2": "2 34058  73.9321 190.5780 0378271 187.2804 301.7990 13.56060145830387"}}, "geometry": {"type": "Point", "coordinates": [-11.584568208516211, 51.15158929252063]}}, {"type": "Feature", "properties": {"norad_id": 34059, "name": "COSMOS 2251 DEB", "group": "cosmos-2251-debris", "lat": 73.9460869568178, "lon": -76.55425392664591, "alt_km": 721.9771133984004, "timestamp": "2025-12-05T18:53:13.675368+00:00", "meta": {"OBJECT_NAME": "COSMOS 2251 DEB", "OBJECT_ID": "1993-036JW", "EPOCH": "2025-12-05T00:49:17.943744", "MEAN_MOTION": 14.52878034, "ECCENTRICITY": 0.001878, "INCLINATION": 74.038, "RA_OF_ASC_NODE": 200.8114, "ARG_OF_PERICENTER": 278.8766, "MEAN_ANOMALY": 194.006, "EPHEMERIS_TYPE": 0, "CLASSIFICATION_TYPE": "U", "NORAD_CAT_ID": 34059, "ELEMENT_SET_NO": 999, "REV_AT_EPOCH": 88347, "BSTAR": 0.0015056079, "MEAN_MOTION_DOT": 6.188e-05, "MEAN_MOTION_DDOT": 0}, "tle": {"line1": "1 34059U 93036JW  25339.03423546  .00006188  00000+0  15056-2 0  9992", "line2": "2 34059  74.0380 200.8114 0018780 278.8766 194.0060 14.52878034883471"}}, "geometry": {"type": "Point", "coordinates": [-76.55425392664591, 73.9460869568178]}}, {"type": "Feature", "properties": {"norad_id": 34061, "name": "COSMOS 2251 DEB", "group": "cosmos-2251-debris", "lat": 28.451748203865343, "lon": -74.83768015693549, "alt_km": 744.0104299827544, "timestamp": "2025-12-05T18:53:13.675378+00:00", "meta": {"OBJECT_NAME": "COSMOS 2251 DEB", "OBJECT_ID": "1993-036JY", "EPOCH": "2025-12-04T21:20:19.440096", "MEAN_MOTION": 14.40329051, "ECCENTRICITY": 0.00202, "INCLINATION": 74.0391, "RA_OF_ASC_NODE": 277.8999, "ARG_OF_PERICENTER": 356.149, "MEAN_ANOMALY": 59.8739, "EPHEMERIS_TYPE": 0, "CLASSIFICATION_TYPE": "U", "NORAD_CAT_ID": 34061, "ELEMENT_SET_NO": 999, "REV_AT_EPOCH": 88067, "BSTAR": 0.00069401, "MEAN_MOTION_DOT": 2.18e-05, "MEAN_MOTION_DDOT": 0}, "tle": {"line1": "1 34061U 93036JY  25338.88911389  .00002180  00000+0  69401-3 0  9996", "line2": "2 34061  74.0391 277.8999 0020200 356.1490  59.8739 14.40329051880672"}}, "geometry": {"type": "Point", "coordinates": [-74.83768015693549, 28.451748203865343]}}, {"type": "Feature", "properties": {"norad_id": 34062, "name": "COSMOS 2251 DEB", "group": "cosmos-2251-debris", "lat": -72.19633163492819, "lon": 88.5884798945669, "alt_km": 604.485432457951, "timestamp": "2025-12-05T18:53:13.675388+00:00", "meta": {"OBJECT_NAME": "COSMOS 2251 DEB", "OBJECT_ID": "1993-036JZ", "EPOCH": "2025-12-04T14:22:04.281888", "MEAN_MOTION": 14.78158581, "ECCENTRICITY": 0.007611, "INCLINATION": 74.0268, "RA_OF_ASC_NODE": 154.0403, "ARG_OF_PERICENTER": 234.6433, "MEAN_ANOMALY": 201.7217, "EPHEMERIS_TYPE": 0, "CLASSIFICATION_TYPE": "U", "NORAD_CAT_ID": 34062, "ELEMENT_SET_NO": 999, "REV_AT_EPOCH": 88475, "BSTAR": 0.0055712, "MEAN_MOTION_DOT": 0.00042578, "MEAN_MOTION_DDOT": 0}, "tle": {"line1": "1 34062U 93036JZ  25338.59866067  .00042578  00000+0  55712-2 0  9991", "line2": "2 34062  74.0268 154.0403 0076110 234.6433 201.7217 14.78158581884751"}}, "geometry": {"type": "Point", "coordinates": [88.5884798945669, -72.19633163492819]}}, {"type": "Feature", "properties": {"norad_id": 34064, "name": "COSMOS 2251 DEB", "group": "cosmos-2251-debris", "lat": -44.05069759305876, "lon": -92.31361624958193, "alt_km": 744.8515313088164, "timestamp": "2025-12-05T18:53:13.675398+00:00", "meta": {"OBJECT_NAME": "COSMOS 2251 DEB", "OBJECT_ID": "1993-036KB", "EPOCH": "2025-12-04T21:43:15.417984", "MEAN_MOTION": 14.42291964, "ECCENTRICITY": 0.0021805, "INCLINATION": 74.0329, "RA_OF_ASC_NODE": 285.4015, "ARG_OF_PERICENTER": 352.8338, "MEAN_ANOMALY": 63.75, "EPHEMERIS_TYPE": 0, "CLASSIFICATION_TYPE": "U", "NORAD_CAT_ID": 34064, "ELEMENT_SET_NO": 999, "REV_AT_EPOCH": 88029, "BSTAR": 0.0011362, "MEAN_MOTION_DOT": 3.736e-05, "MEAN_MOTION_DDOT": 0}, "tle": {"line1": "1 34064U 93036KB  25338.90503956  .00003736  00000+0  11362-2 0  9999", "line2": "2 34064  74.0329 285.4015 0021805 352.8338  63.7500 14.42291964880297"}}, "geometry": {"type": "Point", "coordinates": [-92.31361624958193, -44.05069759305876]}}, {"type": "Feature", "properties": {"norad_id": 34065, "name": "COSMOS 2251 DEB", "group": "cosmos-2251-debris", "lat": 67.44573517375804, "lon": -45.502888818769705, "alt_km": 752.9809519164683, "timestamp": "2025-12-05T18:53:13.675408+00:00", "meta": {"OBJECT_NAME": "COSMOS 2251 DEB", "OBJECT_ID": "1993-036KC", "EPOCH": "2025-12-05T05:53:11.834304", "MEAN_MOTION": 14.38049167, "ECCENTRICITY": 0.00160173, "INCLINATION": 74.0357, "RA_OF_ASC_NODE": 271.9247, "ARG_OF_PERICENTER": 11.1095, "MEAN_ANOMALY": 139.4424, "EPHEMERIS_TYPE": 0, "CLASSIFICATION_TYPE": "U", "NORAD_CAT_ID": 34065, "ELEMENT_SET_NO": 999, "REV_AT_EPOCH": 88097, "BSTAR": 0.0003183238, "MEAN_MOTION_DOT": 9.39e-06, "MEAN_MOTION_DDOT": 0}, "tle": {"line1": "1 34065U 93036KC  25339.24527586  .00000939  00000+0  31832-3 0  9990", "line2": "2 34065  74.0357 271.9247 0016017  11.1095 139.4424 14.38049167880972"}}, "geometry": {"type": "Point", "coordinates": [-45.502888818769705, 67.44573517375804]}}, {"type": "Feature", "properties": {"norad_id": 34070, "name": "COSMOS 2251 DEB", "group": "cosmos-2251-debris", "lat": 63.05420011238882, "lon": 164.28755974845163, "alt_km": 646.9044663325794, "timestamp": "2025-12-05T18:53:13.675418+00:00", "meta": {"OBJECT_NAME": "COSMOS 2251 DEB", "OBJECT_ID": "1993-036KH", "EPOCH": "2025-12-04T20:23:51.478368", "MEAN_MOTION": 14.76578677, "ECCENTRICITY": 0.00192898, "INCLINATION": 73.9997, "RA_OF_ASC_NODE": 131.7607, "ARG_OF_PERICENTER": 246.5409, "MEAN_ANOMALY": 242.3634, "EPHEMERIS_TYPE": 0, "CLASSIFICATION_TYPE": "U", "NORAD_CAT_ID": 34070, "ELEMENT_SET_NO": 999, "REV_AT_EPOCH": 88494, "BSTAR": 0.0058656512, "MEAN_MOTION_DOT": 0.00041286, "MEAN_MOTION_DDOT": 0}, "tle": {"line1": "1 34070U 93036KH  25338.84990137  .00041286  00000+0  58657-2 0  9990", "line2": "2 34070  73.9997 131.7607 0019289 246.5409 242.3634 14.76578677884949"}}, "geometry": {"type": "Point", "coordinates": [164.28755974845163, 63.05420011238882]}}, {"type": "Feature", "properties": {"norad_id": 34114, "name": "COSMOS 2251 DEB", "group": "cosmos-2251-debris", "lat": 64.36748682036405, "lon": 93.55972472223405, "alt_km": 666.3207195299192, "timestamp": "2025-12-05T18:53:13.675428+00:00", "meta": {"OBJECT_NAME": "COSMOS 2251 DEB", "OBJECT_ID": "1993-036KK", "EPOCH": "2025-12-05T07:19:17.617728", "MEAN_MOTION": 14.56216124, "ECCENTRICITY": 0.00473815, "INCLINATION": 74.0611, "RA_OF_ASC_NODE": 57.9165, "ARG_OF_PERICENTER": 55.6667, "MEAN_ANOMALY": 8.6237, "EPHEMERIS_TYPE": 0, "CLASSIFICATION_TYPE": "U", "NORAD_CAT_ID": 34114, "ELEMENT_SET_NO": 999, "REV_AT_EPOCH": 87693, "BSTAR": 0.0033475342, "MEAN_MOTION_DOT": 0.0001503, "MEAN_MOTION_DDOT": 0}, "tle": {"line1": "1 34114U 93036KK  25339.30506502  .00015030  00000+0  33475-2 0  9999", "line2": "2 34114  74.0611  57.9165 0047381  55.6667   8.6237 14.56216124876936"}}, "geometry": {"type": "Point", "coordinates": [93.55972472223405, 64.36748682036405]}}, {"type": "Feature", "properties": {"norad_id": 34115, "name": "COSMOS 2251 DEB", "group": "cosmos-2251-debris", "lat": -34.06732609791979, "lon": -115.53432086793869, "alt_km": 646.2382965141487, "timestamp": "2025-12-05T18:53:13.675438+00:00", "meta": {"OBJECT_NAME": "COSMOS 2251 DEB", "OBJECT_ID": "1993-036KL", "EPOCH": "2025-12-05T04:26:26.128032", "MEAN_MOTION": 14.79304513, "ECCENTRICITY": 0.00282889, "INCLINATION": 74.0078, "RA_OF_ASC_NODE": 256.834, "ARG_OF_PERICENTER": 82.6438, "MEAN_ANOMALY": 277.7951, "EPHEMERIS_TYPE": 0, "CLASSIFICATION_TYPE": "U", "NORAD_CAT_ID": 34115, "ELEMENT_SET_NO": 999, "REV_AT_EPOCH": 89300, "BSTAR": 0.0021642643, "MEAN_MOTION_DOT": 0.00016221, "MEAN_MOTION_DDOT": 0}, "tle": {"line1": "1 34115U 93036KL  25339.18502463  .00016221  00000+0  21643-2 0  9995", "line2": "2 34115  74.0078 256.8340 0028288  82.6438 277.7951 14.79304513893004"}}, "geometry": {"type": "Point", "coordinates": [-115.53432086793869, -34.06732609791979]}}, {"type": "Feature", "properties": {"norad_id": 34116, "name": "COSMOS 2251 DEB", "group": "cosmos-2251-debris", "lat": -47.21036149907986, "lon": 33.89835079925596, "alt_km": 716.1424305614173, "timestamp": "2025-12-05T18:53:13.675448+00:00", "meta": {"OBJECT_NAME": "COSMOS 2251 DEB", "OBJECT_ID": "1993-036KM", "EPOCH": "2025-12-05T01:52:55.843968", "MEAN_MOTION": 14.52910835, "ECCENTRICITY": 0.00122578, "INCLINATION": 74.0404, "RA_OF_ASC_NODE": 197.2263, "ARG_OF_PERICENTER": 273.4633, "MEAN_ANOMALY": 211.8076, "EPHEMERIS_TYPE": 0, "CLASSIFICATION_TYPE": "U", "NORAD_CAT_ID": 34116, "ELEMENT_SET_NO": 999, "REV_AT_EPOCH": 88375, "BSTAR": 0.0015829716, "MEAN_MOTION_DOT": 6.504e-05, "MEAN_MOTION_DDOT": 0}, "tle": {"line1": "1 34116U 93036KM  25339.07842412  .00006504  00000+0  15830-2 0  9999", "line2": "2 34116  74.0404 197.2263 0012257 273.4633 211.8076 14.52910835883755"}}, "geometry": {"type": "Point", "coordinates": [33.89835079925596, -47.21036149907986]}}]}